[{"OBJECT_NAME":"IONOSFERA-M 2","OBJECT_ID":"2024-199B","EPOCH":"2026-03-09T22:15:30.586176","MEAN_MOTION":14.22737815,"ECCENTRICITY":3.184e-5,"INCLINATION":98.7324,"RA_OF_ASC_NODE":302.9812,"ARG_OF_PERICENTER":122.4874,"MEAN_ANOMALY":237.6335,"EPHEMERIS_TYPE":0,"CLASSIFICATION_TYPE":"U","NORAD_CAT_ID":61736,"ELEMENT_SET_NO":999,"REV_AT_EPOCH":11671,"BSTAR":4.5235484e-5,"MEAN_MOTION_DOT":5.7e-7,"MEAN_MOTION_DDOT":0},{"OBJECT_NAME":"FENGYUN 1C DEB","OBJECT_ID":"1999-025AVA","EPOCH":"2026-03-09T18:04:26.857632","MEAN_MOTION":14.18650335,"ECCENTRICITY":0.00547407,"INCLINATION":98.9032,"RA_OF_ASC_NODE":144.5845,"ARG_OF_PERICENTER":165.2751,"MEAN_ANOMALY":319.3665,"EPHEMERIS_TYPE":0,"CLASSIFICATION_TYPE":"U","NORAD_CAT_ID":30816,"ELEMENT_SET_NO":999,"REV_AT_EPOCH":97627,"BSTAR":0.0017109276,"MEAN_MOTION_DOT":3.557e-5,"MEAN_MOTION_DDOT":0}]
